NORAD_CAT_ID,OBJECT_NAME,OBJECT_TYPE,EPOCH,MEAN_MOTION,ECCENTRICITY,INCLINATION,RA_OF_ASC_NODE,ARG_OF_PERICENTER,MEAN_ANOMALY,BSTAR,MEAN_MOTION_DOT,MEAN_MOTION_DDOT,TLE_LINE0,TLE_LINE1,TLE_LINE2,SEMIMAJOR_AXIS,PERIOD,APOGEE,PERIGEE,DECAYED
52647.0,STARLINK-3846,PAYLOAD,2024-08-06 18:49:59,15.08829269,0.0001537,53.2179,342.525,93.5652,266.5516,0.00016692,2.369e-05,0.0,0 STARLINK-3846,1 52647U 22052BB  24219.78471853  .00002369  00000-0  16692-3 0  9993,2 52647  53.2179 342.5250 0001537  93.5652 266.5516 15.08829269123962,6917.913,95.438,540.841,538.715,0.0
52647.0,STARLINK-3846,PAYLOAD,2024-08-07 12:19:14,15.08849336,0.0001482,53.2174,339.2541,93.6117,266.5045,0.0012035,0.00018922,0.0,0 STARLINK-3846,1 52647U 22052BB  24220.51336242  .00018922  00000-0  12035-2 0  9996,2 52647  53.2174 339.2541 0001482  93.6117 266.5045 15.08849336123705,6917.852,95.437,540.742,538.692,0.0
52647.0,STARLINK-3846,PAYLOAD,2024-08-07 15:30:00,15.08859559,0.0001397,53.2167,338.6592,85.6247,274.4904,0.0015366,0.00024265,0.0,0 STARLINK-3846,1 52647U 22052BB  24220.64584062  .00024265  00000-0  15366-2 0  9992,2 52647  53.2167 338.6592 0001397  85.6247 274.4904 15.08859559124099,6917.821,95.436,540.652,538.719,0.0
52647.0,STARLINK-3846,PAYLOAD,2024-08-08 13:45:24,15.08850941,0.0001531,53.2152,334.4946,73.6572,286.4588,0.00097256,0.00015229,0.0,0 STARLINK-3846,1 52647U 22052BB  24221.57320083  .00015229  00000-0  97256-3 0  9995,2 52647  53.2152 334.4946 0001531  73.6572 286.4588 15.08850941123869,6917.847,95.437,540.771,538.653,0.0
52647.0,STARLINK-3846,PAYLOAD,2024-08-08 15:20:47,15.08855178,0.0001546,53.2154,334.1964,82.8941,277.2227,0.0006557,0.00010167,0.0,0 STARLINK-3846,1 52647U 22052BB  24221.63943896  .00010167  00000-0  65570-3 0  9995,2 52647  53.2154 334.1964 0001546  82.8941 277.2227 15.08855178124244,6917.834,95.437,540.768,538.629,0.0
52647.0,STARLINK-3846,PAYLOAD,2024-08-09 13:36:11,15.08840951,0.0001742,53.2147,330.0343,103.6986,256.42,0.00044944,6.872e-05,0.0,0 STARLINK-3846,1 52647U 22052BB  24222.56679907  .00006872  00000-0  44944-3 0  9997,2 52647  53.2147 330.0343 0001742 103.6986 256.4200 15.08840951124389,6917.877,95.437,540.948,538.537,0.0
52647.0,STARLINK-3846,PAYLOAD,2024-08-10 11:51:35,15.08842852,0.0001529,53.2164,325.8662,101.5557,258.5607,0.00047932,7.349e-05,0.0,0 STARLINK-3846,1 52647U 22052BB  24223.49415817  .00007349  00000-0  47932-3 0  9998,2 52647  53.2164 325.8662 0001529 101.5557 258.5607 15.08842852124520,6917.872,95.437,540.794,538.679,0.0
52647.0,STARLINK-3846,PAYLOAD,2024-08-10 13:26:58,15.08846324,0.0001601,53.2176,325.57,111.8368,248.2794,0.00019985,2.895e-05,0.0,0 STARLINK-3846,1 52647U 22052BB  24223.56039624  .00002895  00000-0  19985-3 0  9992,2 52647  53.2176 325.5700 0001601 111.8368 248.2794 15.08846324124169,6917.861,95.437,540.834,538.619,0.0
52647.0,STARLINK-3846,PAYLOAD,2024-08-11 13:17:45,15.08837031,0.0001549,53.2174,321.1122,99.4343,260.6825,0.00024828,3.665e-05,0.0,0 STARLINK-3846,1 52647U 22052BB  24224.55400272  .00003665  00000-0  24828-3 0  9991,2 52647  53.2174 321.1122 0001549  99.4343 260.6825 15.08837031124687,6917.889,95.438,540.826,538.683,0.0
52647.0,STARLINK-3846,PAYLOAD,2024-08-12 13:08:31,15.08854728,0.0001284,53.2174,316.6514,102.4392,257.6743,0.00032393,4.873e-05,0.0,0 STARLINK-3846,1 52647U 22052BB  24225.54759162  .00004873  00000-0  32393-3 0  9994,2 52647  53.2174 316.6514 0001284 102.4392 257.6743 15.08854728124830,6917.835,95.437,540.589,538.812,0.0
52647.0,STARLINK-3846,PAYLOAD,2024-08-12 22:40:48,15.08894656,6.56e-05,53.2178,314.8695,77.8231,282.2834,0.00077609,0.00012104,0.0,0 STARLINK-3846,1 52647U 22052BB  24225.94500521  .00012104  00000-0  77609-3 0  9996,2 52647  53.2178 314.8695 0000656  77.8231 282.2834 15.08894656124528,6917.713,95.434,540.032,539.125,0.0
52647.0,STARLINK-3846,PAYLOAD,2024-08-13 12:59:19,15.08819472,0.0001414,53.2199,312.1974,97.9818,262.1335,-0.00042222,-6.997e-05,0.0,0 STARLINK-3846,1 52647U 22052BB  24226.54120346 -.00006997  00000-0 -42222-3 0  9994,2 52647  53.2199 312.1974 0001414  97.9818 262.1335 15.08819472124985,6917.943,95.439,540.786,538.83,0.0
52647.0,STARLINK-3846,PAYLOAD,2024-08-13 22:31:38,15.08827436,9.27e-05,53.2196,310.4106,81.2543,278.8554,-0.00023731,-4.061e-05,0.0,0 STARLINK-3846,1 52647U 22052BB  24226.93864477 -.00004061  00000-0 -23731-3 0  9991,2 52647  53.2196 310.4106 0000927  81.2543 278.8554 15.08827436124671,6917.919,95.438,540.425,539.143,0.0
52647.0,STARLINK-3846,PAYLOAD,2024-08-14 12:50:07,15.0883785,0.0001308,53.2181,307.7339,84.5464,275.5678,0.00087884,0.00013726,0.0,0 STARLINK-3846,1 52647U 22052BB  24227.53480803  .00013726  00000-0  87884-3 0  9990,2 52647  53.2181 307.7339 0001308  84.5464 275.5678 15.08837850125138,6917.887,95.438,540.657,538.847,0.0
52647.0,STARLINK-3846,PAYLOAD,2024-08-15 09:30:08,15.08845034,0.000134,53.2163,303.8682,81.3028,278.8116,0.00021184,3.086e-05,0.0,0 STARLINK-3846,1 52647U 22052BB  24228.39592681  .00003086  00000-0  21184-3 0  9992,2 52647  53.2163 303.8682 0001340  81.3028 278.8116 15.08845034124891,6917.865,95.437,540.657,538.803,0.0
52647.0,STARLINK-3846,PAYLOAD,2024-08-15 22:13:13,15.08844899,0.0001277,53.2147,301.488,64.4193,295.6931,0.00016874,2.399e-05,0.0,0 STARLINK-3846,1 52647U 22052BB  24228.92584620  .00002399  00000-0  16874-3 0  9991,2 52647  53.2147 301.4880 0001277  64.4193 295.6931 15.08844899124970,6917.865,95.437,540.614,538.847,0.0
52647.0,STARLINK-3846,PAYLOAD,2024-08-16 09:20:55,15.08839095,0.0001446,53.2153,299.4038,72.6987,287.4163,5.33e-05,5.6e-06,0.0,0 STARLINK-3846,1 52647U 22052BB  24229.38952889  .00000560  00000-0  53300-4 0  9992,2 52647  53.2153 299.4038 0001446  72.6987 287.4163 15.08839095125416,6917.883,95.438,540.748,538.748,0.0
52647.0,STARLINK-3846,PAYLOAD,2024-08-18 10:37:52,15.08846365,0.0001508,53.2162,290.1835,74.4619,285.654,0.00022279,3.26e-05,0.0,0 STARLINK-3846,1 52647U 22052BB  24231.44296869  .00003260  00000-0  22279-3 0  9991,2 52647  53.2162 290.1835 0001508  74.4619 285.6540 15.08846365125721,6917.861,95.437,540.769,538.683,0.0
52647.0,STARLINK-3846,PAYLOAD,2024-08-18 15:24:01,15.08852322,0.0001472,53.2167,289.2951,72.4117,287.7036,0.00028522,4.256e-05,0.0,0 STARLINK-3846,1 52647U 22052BB  24231.64168534  .00004256  00000-0  28522-3 0  9993,2 52647  53.2167 289.2951 0001472  72.4117 287.7036 15.08852322125380,6917.843,95.437,540.726,538.689,0.0
52647.0,STARLINK-3846,PAYLOAD,2024-08-19 04:07:07,15.08839959,0.0001374,53.2165,286.9209,68.3027,291.8112,9.9423e-05,1.295e-05,0.0,0 STARLINK-3846,1 52647U 22052BB  24232.17161105  .00001295  00000-0  99423-4 0  9998,2 52647  53.2165 286.9209 0001374  68.3027 291.8112 15.08839959125835,6917.881,95.438,540.696,538.795,0.0
52647.0,STARLINK-3846,PAYLOAD,2024-08-19 12:04:03,15.08835668,0.0001354,53.2161,285.4266,80.563,279.5515,1.888e-05,1.3e-07,0.0,0 STARLINK-3846,1 52647U 22052BB  24232.50281270  .00000013  00000-0  18880-4 0  9996,2 52647  53.2161 285.4266 0001354  80.5630 279.5515 15.08835668125510,6917.894,95.438,540.695,538.822,0.0
52647.0,STARLINK-3846,PAYLOAD,2024-08-20 10:19:26,15.08843064,0.0001435,53.2159,281.2659,87.0219,273.0937,3.2415e-05,2.28e-06,0.0,0 STARLINK-3846,1 52647U 22052BB  24233.43016961  .00000228  00000-0  32415-4 0  9990,2 52647  53.2159 281.2659 0001435  87.0219 273.0937 15.08843064126025,6917.871,95.437,540.729,538.743,0.0
52647.0,STARLINK-3846,PAYLOAD,2024-08-21 03:48:41,15.08834489,0.0001372,53.2157,277.9941,87.7858,272.3292,0.00016542,2.345e-05,0.0,0 STARLINK-3846,1 52647U 22052BB  24234.15881441  .00002345  00000-0  16542-3 0  9997,2 52647  53.2157 277.9941 0001372  87.7858 272.3292 15.08834489126134,6917.897,95.438,540.711,538.813,0.0
52647.0,STARLINK-3846,PAYLOAD,2024-08-21 10:10:14,15.088349,0.0001359,53.2147,276.8048,85.3369,274.7778,0.00010216,1.338e-05,0.0,0 STARLINK-3846,1 52647U 22052BB  24234.42377506  .00001338  00000-0  10216-3 0  9992,2 52647  53.2147 276.8048 0001359  85.3369 274.7778 15.08834900125801,6917.896,95.438,540.701,538.821,0.0
52647.0,STARLINK-3846,PAYLOAD,2024-08-21 19:42:32,15.0883872,0.0001377,53.2148,275.0212,86.3908,273.7242,9.7149e-05,1.258e-05,0.0,0 STARLINK-3846,1 52647U 22052BB  24234.82121383  .00001258  00000-0  97149-4 0  9998,2 52647  53.2148 275.0212 0001377  86.3908 273.7242 15.08838720125861,6917.884,95.438,540.702,538.797,0.0
